[{"OBJECT_NAME":"JINJUSAT-1B","OBJECT_ID":"2025-052A","EPOCH":"2026-03-09T15:55:38.242848","MEAN_MOTION":15.30194857,"ECCENTRICITY":0.00055504,"INCLINATION":97.4113,"RA_OF_ASC_NODE":325.4613,"ARG_OF_PERICENTER":82.193,"MEAN_ANOMALY":277.9941,"EPHEMERIS_TYPE":0,"CLASSIFICATION_TYPE":"U","NORAD_CAT_ID":63210,"ELEMENT_SET_NO":999,"REV_AT_EPOCH":5486,"BSTAR":0.00068430401,"MEAN_MOTION_DOT":0.00019955,"MEAN_MOTION_DDOT":0},{"OBJECT_NAME":"STARLINK-35781","OBJECT_ID":"2025-299J","EPOCH":"2026-03-09T07:15:07.559712","MEAN_MOTION":15.2841751,"ECCENTRICITY":6.167e-5,"INCLINATION":42.9989,"RA_OF_ASC_NODE":171.4742,"ARG_OF_PERICENTER":246.1794,"MEAN_ANOMALY":113.8993,"EPHEMERIS_TYPE":0,"CLASSIFICATION_TYPE":"U","NORAD_CAT_ID":67110,"ELEMENT_SET_NO":999,"REV_AT_EPOCH":1305,"BSTAR":0.00090285523,"MEAN_MOTION_DOT":0.00025312,"MEAN_MOTION_DDOT":0}]
