JINJUSAT-1B             
1 63210U 25052A   26068.66363707  .00019955  00000+0  68430-3 0  9998
2 63210  97.4113 325.4613 0005550  82.1930 277.9941 15.30194857 54866
STARLINK-35781          
1 67110U 25299J   26068.30217083  .00025312  00000+0  90286-3 0  9998
2 67110  42.9989 171.4742 0000616 246.1794 113.8993 15.28417510 13057
